ORBCOMM FM103           
1 40091U 14040F   25035.10687259  .00001383  00000+0  33636-3 0  9994
2 40091  47.0056 286.1296 0001756  23.0509 337.0455 14.57771046561742
ORBCOMM FM114           
1 41179U 15081A   25034.51628825  .00001422  00000+0  34430-3 0  9993
2 41179  47.0010 198.0463 0001577 118.4602 241.6443 14.57824719484962
ORBCOMM FM119           
1 41180U 15081B   25034.63449629  .00001736  00000+0  41296-3 0  9997
2 41180  46.9994 106.7499 0001460 216.5454 143.5332 14.57746297486237
ORBCOMM FM105           
1 41181U 15081C   25035.13110964  .00000687  00000+0  23988-3 0  9993
2 41181  47.0014  96.5055 0000659  80.9452 279.1503 14.45011484481610
ORBCOMM FM110           
1 41182U 15081D   25034.56006256  .00002555  00000+0  58985-3 0  9999
2 41182  46.9998 197.2044 0002794 244.7334 115.3262 14.57788893484847
ORBCOMM FM118           
1 41183U 15081E   25034.88530857  .00002039  00000+0  47889-3 0  9992
2 41183  47.0021 196.0887 0003222 242.7093 117.3464 14.57715357485073
ORBCOMM FM112           
1 41184U 15081F   25035.22795136  .00002485  00000+0  57504-3 0  9995
2 41184  46.9979 103.1200 0000802 219.6587 140.4240 14.57745426486311
ORBCOMM FM113           
1 41185U 15081G   25034.58780678  .00002346  00000+0  54507-3 0  9995
2 41185  46.9996 106.4449 0001092 216.2635 143.8176 14.57739905486153
